CCSDS_OMM_VERS = 2.0
CREATION_DATE  = 
ORIGINATOR     = 

OBJECT_NAME    = CYGNUS NG-23
OBJECT_ID      = 2025-208A
CENTER_NAME    = EARTH
REF_FRAME      = TEME
TIME_SYSTEM    = UTC
MEAN_ELEMENT_THEORY = SGP/SGP4

EPOCH          = 2026-01-02T05:49:12.430272
MEAN_MOTION    = 15.49029434
ECCENTRICITY   = .00075315
INCLINATION    = 51.6329
RA_OF_ASC_NODE = 40.9506
ARG_OF_PERICENTER = 330.5355
MEAN_ANOMALY   = 29.5208

EPHEMERIS_TYPE = 0
CLASSIFICATION_TYPE = U
NORAD_CAT_ID   = 65616
ELEMENT_SET_NO = 999
REV_AT_EPOCH   = 22
BSTAR          = .2976005E-3
MEAN_MOTION_DOT = .16008E-3
MEAN_MOTION_DDOT = 0

CCSDS_OMM_VERS = 2.0
CREATION_DATE  = 
ORIGINATOR     = 

OBJECT_NAME    = DRAGONFLY
OBJECT_ID      = 1998-067XH
CENTER_NAME    = EARTH
REF_FRAME      = TEME
TIME_SYSTEM    = UTC
MEAN_ELEMENT_THEORY = SGP/SGP4

EPOCH          = 2026-01-02T08:23:55.344768
MEAN_MOTION    = 15.80796325
ECCENTRICITY   = .0008753
INCLINATION    = 51.6237
RA_OF_ASC_NODE = 29.6258
ARG_OF_PERICENTER = 36.3434
MEAN_ANOMALY   = 323.8161

EPHEMERIS_TYPE = 0
CLASSIFICATION_TYPE = U
NORAD_CAT_ID   = 65729
ELEMENT_SET_NO = 999
REV_AT_EPOCH   = 1641
BSTAR          = .17812E-2
MEAN_MOTION_DOT = .366194E-2
MEAN_MOTION_DDOT = 0

CCSDS_OMM_VERS = 2.0
CREATION_DATE  = 
ORIGINATOR     = 

OBJECT_NAME    = 1998-067XK
OBJECT_ID      = 1998-067XK
CENTER_NAME    = EARTH
REF_FRAME      = TEME
TIME_SYSTEM    = UTC
MEAN_ELEMENT_THEORY = SGP/SGP4

EPOCH          = 2026-01-02T07:44:07.639296
MEAN_MOTION    = 15.70407010
ECCENTRICITY   = .000527
INCLINATION    = 51.6290
RA_OF_ASC_NODE = 32.4842
ARG_OF_PERICENTER = 11.7490
MEAN_ANOMALY   = 348.3630

EPHEMERIS_TYPE = 0
CLASSIFICATION_TYPE = U
NORAD_CAT_ID   = 65731
ELEMENT_SET_NO = 999
REV_AT_EPOCH   = 1637
BSTAR          = .12759E-2
MEAN_MOTION_DOT = .162016E-2
MEAN_MOTION_DDOT = 0

CCSDS_OMM_VERS = 2.0
CREATION_DATE  = 
ORIGINATOR     = 

OBJECT_NAME    = RSP-03
OBJECT_ID      = 1998-067XL
CENTER_NAME    = EARTH
REF_FRAME      = TEME
TIME_SYSTEM    = UTC
MEAN_ELEMENT_THEORY = SGP/SGP4

EPOCH          = 2026-01-02T08:14:34.473120
MEAN_MOTION    = 15.75019106
ECCENTRICITY   = .0006412
INCLINATION    = 51.6260
RA_OF_ASC_NODE = 31.1044
ARG_OF_PERICENTER = 18.4939
MEAN_ANOMALY   = 341.6292

EPHEMERIS_TYPE = 0
CLASSIFICATION_TYPE = U
NORAD_CAT_ID   = 65732
ELEMENT_SET_NO = 999
REV_AT_EPOCH   = 1640
BSTAR          = .15221E-2
MEAN_MOTION_DOT = .237676E-2
MEAN_MOTION_DDOT = 0

CCSDS_OMM_VERS = 2.0
CREATION_DATE  = 
ORIGINATOR     = 

OBJECT_NAME    = GHS-01
OBJECT_ID      = 1998-067XM
CENTER_NAME    = EARTH
REF_FRAME      = TEME
TIME_SYSTEM    = UTC
MEAN_ELEMENT_THEORY = SGP/SGP4

EPOCH          = 2026-01-02T10:28:56.152128
MEAN_MOTION    = 15.87073258
ECCENTRICITY   = .0009648
INCLINATION    = 51.6261
RA_OF_ASC_NODE = 27.9593
ARG_OF_PERICENTER = 41.4531
MEAN_ANOMALY   = 318.7204

EPHEMERIS_TYPE = 0
CLASSIFICATION_TYPE = U
NORAD_CAT_ID   = 65733
ELEMENT_SET_NO = 999
REV_AT_EPOCH   = 1645
BSTAR          = .18982E-2
MEAN_MOTION_DOT = .536437E-2
MEAN_MOTION_DDOT = 0

CCSDS_OMM_VERS = 2.0
CREATION_DATE  = 
ORIGINATOR     = 

OBJECT_NAME    = YOTSUBA-KULOVER
OBJECT_ID      = 1998-067XN
CENTER_NAME    = EARTH
REF_FRAME      = TEME
TIME_SYSTEM    = UTC
MEAN_ELEMENT_THEORY = SGP/SGP4

EPOCH          = 2026-01-02T04:48:23.184576
MEAN_MOTION    = 15.62632444
ECCENTRICITY   = .00035063
INCLINATION    = 51.6293
RA_OF_ASC_NODE = 36.9233
ARG_OF_PERICENTER = 41.0391
MEAN_ANOMALY   = 319.0866

EPHEMERIS_TYPE = 0
CLASSIFICATION_TYPE = U
NORAD_CAT_ID   = 65941
ELEMENT_SET_NO = 999
REV_AT_EPOCH   = 1305
BSTAR          = .12269059E-2
MEAN_MOTION_DOT = .113017E-2
MEAN_MOTION_DDOT = 0

CCSDS_OMM_VERS = 2.0
CREATION_DATE  = 
ORIGINATOR     = 

OBJECT_NAME    = BOTAN
OBJECT_ID      = 1998-067XP
CENTER_NAME    = EARTH
REF_FRAME      = TEME
TIME_SYSTEM    = UTC
MEAN_ELEMENT_THEORY = SGP/SGP4

EPOCH          = 2026-01-02T03:36:22.886496
MEAN_MOTION    = 15.67940864
ECCENTRICITY   = .00043047
INCLINATION    = 51.6277
RA_OF_ASC_NODE = 35.8337
ARG_OF_PERICENTER = 29.4049
MEAN_ANOMALY   = 330.7189

EPHEMERIS_TYPE = 0
CLASSIFICATION_TYPE = U
NORAD_CAT_ID   = 65942
ELEMENT_SET_NO = 999
REV_AT_EPOCH   = 1306
BSTAR          = .16108875E-2
MEAN_MOTION_DOT = .185347E-2
MEAN_MOTION_DDOT = 0

CCSDS_OMM_VERS = 2.0
CREATION_DATE  = 
ORIGINATOR     = 

OBJECT_NAME    = E-KAGAKU-1
OBJECT_ID      = 1998-067XQ
CENTER_NAME    = EARTH
REF_FRAME      = TEME
TIME_SYSTEM    = UTC
MEAN_ELEMENT_THEORY = SGP/SGP4

EPOCH          = 2026-01-01T08:51:04.568832
MEAN_MOTION    = 15.62480347
ECCENTRICITY   = .00020247
INCLINATION    = 51.6307
RA_OF_ASC_NODE = 41.1262
ARG_OF_PERICENTER = 24.8503
MEAN_ANOMALY   = 335.2588

EPHEMERIS_TYPE = 0
CLASSIFICATION_TYPE = U
NORAD_CAT_ID   = 65943
ELEMENT_SET_NO = 999
REV_AT_EPOCH   = 1292
BSTAR          = .11721053E-2
MEAN_MOTION_DOT = .107212E-2
MEAN_MOTION_DDOT = 0

CCSDS_OMM_VERS = 2.0
CREATION_DATE  = 
ORIGINATOR     = 

OBJECT_NAME    = HRC MONOBLOCK CAMERA
OBJECT_ID      = 1998-067XR
CENTER_NAME    = EARTH
REF_FRAME      = TEME
TIME_SYSTEM    = UTC
MEAN_ELEMENT_THEORY = SGP/SGP4

EPOCH          = 2026-01-02T11:24:02.276640
MEAN_MOTION    = 15.55730250
ECCENTRICITY   = .0001506
INCLINATION    = 51.6311
RA_OF_ASC_NODE = 38.0050
ARG_OF_PERICENTER = 299.6905
MEAN_ANOMALY   = 60.3936

EPHEMERIS_TYPE = 0
CLASSIFICATION_TYPE = U
NORAD_CAT_ID   = 66052
ELEMENT_SET_NO = 999
REV_AT_EPOCH   = 1206
BSTAR          = .65937E-3
MEAN_MOTION_DOT = .46072E-3
MEAN_MOTION_DDOT = 0

CCSDS_OMM_VERS = 2.0
CREATION_DATE  = 
ORIGINATOR     = 

OBJECT_NAME    = HTV-X1
OBJECT_ID      = 2025-241A
CENTER_NAME    = EARTH
REF_FRAME      = TEME
TIME_SYSTEM    = UTC
MEAN_ELEMENT_THEORY = SGP/SGP4

EPOCH          = 2026-01-02T05:49:12.430272
MEAN_MOTION    = 15.49029434
ECCENTRICITY   = .00075315
INCLINATION    = 51.6329
RA_OF_ASC_NODE = 40.9506
ARG_OF_PERICENTER = 330.5355
MEAN_ANOMALY   = 29.5208

EPHEMERIS_TYPE = 0
CLASSIFICATION_TYPE = U
NORAD_CAT_ID   = 66174
ELEMENT_SET_NO = 999
REV_AT_EPOCH   = 51
BSTAR          = .2976005E-3
MEAN_MOTION_DOT = .16008E-3
MEAN_MOTION_DDOT = 0

CCSDS_OMM_VERS = 2.0
CREATION_DATE  = 
ORIGINATOR     = 

OBJECT_NAME    = SZ-21 MODULE
OBJECT_ID      = 2025-246C
CENTER_NAME    = EARTH
REF_FRAME      = TEME
TIME_SYSTEM    = UTC
MEAN_ELEMENT_THEORY = SGP/SGP4

EPOCH          = 2026-01-02T16:30:50.579424
MEAN_MOTION    = 15.63766644
ECCENTRICITY   = .0002389
INCLINATION    = 41.4757
RA_OF_ASC_NODE = 248.1478
ARG_OF_PERICENTER = 22.7374
MEAN_ANOMALY   = 337.3571

EPHEMERIS_TYPE = 0
CLASSIFICATION_TYPE = U
NORAD_CAT_ID   = 66515
ELEMENT_SET_NO = 999
REV_AT_EPOCH   = 772
BSTAR          = .41839E-3
MEAN_MOTION_DOT = .40143E-3
MEAN_MOTION_DDOT = 0

CCSDS_OMM_VERS = 2.0
CREATION_DATE  = 
ORIGINATOR     = 

OBJECT_NAME    = SHENZHOU-22
OBJECT_ID      = 2025-272A
CENTER_NAME    = EARTH
REF_FRAME      = TEME
TIME_SYSTEM    = UTC
MEAN_ELEMENT_THEORY = SGP/SGP4

EPOCH          = 2026-01-02T03:24:33.153696
MEAN_MOTION    = 15.60055172
ECCENTRICITY   = .00101915
INCLINATION    = 41.4662
RA_OF_ASC_NODE = 252.7694
ARG_OF_PERICENTER = 202.3911
MEAN_ANOMALY   = 157.6484

EPHEMERIS_TYPE = 0
CLASSIFICATION_TYPE = U
NORAD_CAT_ID   = 66645
ELEMENT_SET_NO = 999
REV_AT_EPOCH   = 26714
BSTAR          = .35128331E-3
MEAN_MOTION_DOT = .29116E-3
MEAN_MOTION_DDOT = 0

