CYGNUS NG-23            
1 65616U 25208A   26002.24250498  .00016008  00000+0  29760-3 0  9996
2 65616  51.6329  40.9506 0007531 330.5355  29.5208 15.49029434   227
DRAGONFLY               
1 65729U 98067XH  26002.34994612  .00366194  00000+0  17812-2 0  9996
2 65729  51.6237  29.6258 0008753  36.3434 323.8161 15.80796325 16415
1998-067XK              
1 65731U 98067XK  26002.32231064  .00162016  00000+0  12759-2 0  9994
2 65731  51.6290  32.4842 0005270  11.7490 348.3630 15.70407010 16375
RSP-03                  
1 65732U 98067XL  26002.34345455  .00237676  00000+0  15221-2 0  9999
2 65732  51.6260  31.1044 0006412  18.4939 341.6292 15.75019106 16408
GHS-01                  
1 65733U 98067XM  26002.43676102  .00536437  00000+0  18982-2 0  9990
2 65733  51.6261  27.9593 0009648  41.4531 318.7204 15.87073258 16454
YOTSUBA-KULOVER         
1 65941U 98067XN  26002.20026834  .00113017  00000+0  12269-2 0  9994
2 65941  51.6293  36.9233 0003506  41.0391 319.0866 15.62632444 13050
BOTAN                   
1 65942U 98067XP  26002.15026489  .00185347  00000+0  16109-2 0  9997
2 65942  51.6277  35.8337 0004304  29.4049 330.7189 15.67940864 13065
E-KAGAKU-1              
1 65943U 98067XQ  26001.36880288  .00107212  00000+0  11721-2 0  9995
2 65943  51.6307  41.1262 0002024  24.8503 335.2588 15.62480347 12925
HRC MONOBLOCK CAMERA    
1 66052U 98067XR  26002.47502635  .00046072  00000+0  65937-3 0  9992
2 66052  51.6311  38.0050 0001506 299.6905  60.3936 15.55730250 12065
HTV-X1                  
1 66174U 25241A   26002.24250498  .00016008  00000+0  29760-3 0  9993
2 66174  51.6329  40.9506 0007531 330.5355  29.5208 15.49029434   519
SZ-21 MODULE            
1 66515U 25246C   26002.68808541  .00040143  00000+0  41839-3 0  9991
2 66515  41.4757 248.1478 0002389  22.7374 337.3571 15.63766644  7727
SHENZHOU-22             
1 66645U 25272A   26002.14205039  .00029116  00000+0  35128-3 0  9999
2 66645  41.4662 252.7694 0010191 202.3911 157.6484 15.60055172267144
